{"type": "FeatureCollection", "features": [{"type": "Feature", "properties": {"norad_id": 26766, "name": "INTELSAT 10 (IS-10)", "group": "intelsat", "lat": 5.694778410714666, "lon": 102.11483307490657, "alt_km": 36156.46542451966, "timestamp": "2025-12-11T15:53:39.209666+00:00", "meta": {"OBJECT_NAME": "INTELSAT 10 (IS-10)", "OBJECT_ID": "2001-019A", "EPOCH": "2025-12-10T14:14:44.567232", "MEAN_MOTION": 0.99078928, "ECCENTRICITY": 0.00078121, "INCLINATION": 8.625, "RA_OF_ASC_NODE": 61.1789, "ARG_OF_PERICENTER": 223.6466, "MEAN_ANOMALY": 156.4185, "EPHEMERIS_TYPE": 0, "CLASSIFICATION_TYPE": "U", "NORAD_CAT_ID": 26766, "ELEMENT_SET_NO": 999, "REV_AT_EPOCH": 4371, "BSTAR": 0, "MEAN_MOTION_DOT": -2.88e-06, "MEAN_MOTION_DDOT": 0}, "tle": {"line1": "1 26766U 01019A   25344.59357138 -.00000288  00000+0  00000+0 0  9994", "line2": "2 26766   8.6250  61.1789 0007812 223.6466 156.4185  0.99078928 43716"}}, "geometry": {"type": "Point", "coordinates": [102.11483307490657, 5.694778410714666]}}, {"type": "Feature", "properties": {"norad_id": 26900, "name": "INTELSAT 902 (IS-902)", "group": "intelsat", "lat": -1.4525063768294302, "lon": -91.24200656984243, "alt_km": 35770.545447105294, "timestamp": "2025-12-11T15:53:39.209690+00:00", "meta": {"OBJECT_NAME": "INTELSAT 902 (IS-902)", "OBJECT_ID": "2001-039A", "EPOCH": "2025-12-01T16:59:59.311968", "MEAN_MOTION": 1.00270327, "ECCENTRICITY": 0.00043097, "INCLINATION": 5.6187, "RA_OF_ASC_NODE": 74.2002, "ARG_OF_PERICENTER": 175.119, "MEAN_ANOMALY": 26.3816, "EPHEMERIS_TYPE": 0, "CLASSIFICATION_TYPE": "U", "NORAD_CAT_ID": 26900, "ELEMENT_SET_NO": 999, "REV_AT_EPOCH": 8871, "BSTAR": 0, "MEAN_MOTION_DOT": -2.63e-06, "MEAN_MOTION_DDOT": 0}, "tle": {"line1": "1 26900U 01039A   25335.70832537 -.00000263  00000+0  00000+0 0  9993", "line2": "2 26900   5.6187  74.2002 0004309 175.1190  26.3816  1.00270327 88713"}}, "geometry": {"type": "Point", "coordinates": [-91.24200656984243, -1.4525063768294302]}}, {"type": "Feature", "properties": {"norad_id": 27380, "name": "INTELSAT 904 (IS-904)", "group": "intelsat", "lat": -3.8110458047737565, "lon": -72.64721909574699, "alt_km": 35779.896095639524, "timestamp": "2025-12-11T15:53:39.209707+00:00", "meta": {"OBJECT_NAME": "INTELSAT 904 (IS-904)", "OBJECT_ID": "2002-007A", "EPOCH": "2025-12-11T02:13:33.121344", "MEAN_MOTION": 1.00272878, "ECCENTRICITY": 0.00015327, "INCLINATION": 6.451, "RA_OF_ASC_NODE": 71.4509, "ARG_OF_PERICENTER": 222.2761, "MEAN_ANOMALY": 148.2085, "EPHEMERIS_TYPE": 0, "CLASSIFICATION_TYPE": "U", "NORAD_CAT_ID": 27380, "ELEMENT_SET_NO": 999, "REV_AT_EPOCH": 4988, "BSTAR": 0, "MEAN_MOTION_DOT": -2.21e-06, "MEAN_MOTION_DDOT": 0}, "tle": {"line1": "1 27380U 02007A   25345.09274446 -.00000221  00000+0  00000+0 0  9998", "line2": "2 27380   6.4510  71.4509 0001532 222.2761 148.2085  1.00272878 49889"}}, "geometry": {"type": "Point", "coordinates": [-72.64721909574699, -3.8110458047737565]}}, {"type": "Feature", "properties": {"norad_id": 27426, "name": "DIRECTV 5 (TEMPO 1)", "group": "intelsat", "lat": 3.2964258609494057, "lon": -151.043210715009, "alt_km": 35778.77173778707, "timestamp": "2025-12-11T15:53:39.209720+00:00", "meta": {"OBJECT_NAME": "DIRECTV 5 (TEMPO 1)", "OBJECT_ID": "2002-023A", "EPOCH": "2025-12-11T05:08:38.770368", "MEAN_MOTION": 1.0027173, "ECCENTRICITY": 0.00035247, "INCLINATION": 4.3986, "RA_OF_ASC_NODE": 77.6693, "ARG_OF_PERICENTER": 193.7723, "MEAN_ANOMALY": 135.7724, "EPHEMERIS_TYPE": 0, "CLASSIFICATION_TYPE": "U", "NORAD_CAT_ID": 27426, "ELEMENT_SET_NO": 999, "REV_AT_EPOCH": 8623, "BSTAR": 0, "MEAN_MOTION_DOT": -5.1e-07, "MEAN_MOTION_DDOT": 0}, "tle": {"line1": "1 27426U 02023A   25345.21433762 -.00000051  00000+0  00000+0 0  9990", "line2": "2 27426   4.3986  77.6693 0003524 193.7723 135.7724  1.00271730 86236"}}, "geometry": {"type": "Point", "coordinates": [-151.043210715009, 3.2964258609494057]}}, {"type": "Feature", "properties": {"norad_id": 27438, "name": "INTELSAT 905 (IS-905)", "group": "intelsat", "lat": 5.909939641979065, "lon": -178.08656220985623, "alt_km": 35783.747827288695, "timestamp": "2025-12-11T15:53:39.209732+00:00", "meta": {"OBJECT_NAME": "INTELSAT 905 (IS-905)", "OBJECT_ID": "2002-027A", "EPOCH": "2025-12-10T10:38:24.492192", "MEAN_MOTION": 1.00272307, "ECCENTRICITY": 0.00027995, "INCLINATION": 6.2803, "RA_OF_ASC_NODE": 72.0822, "ARG_OF_PERICENTER": 193.4676, "MEAN_ANOMALY": 196.2661, "EPHEMERIS_TYPE": 0, "CLASSIFICATION_TYPE": "U", "NORAD_CAT_ID": 27438, "ELEMENT_SET_NO": 999, "REV_AT_EPOCH": 4947, "BSTAR": 0, "MEAN_MOTION_DOT": 9.7e-07, "MEAN_MOTION_DDOT": 0}, "tle": {"line1": "1 27438U 02027A   25344.44333903  .00000097  00000+0  00000+0 0  9996", "line2": "2 27438   6.2803  72.0822 0002799 193.4676 196.2661  1.00272307 49476"}}, "geometry": {"type": "Point", "coordinates": [-178.08656220985623, 5.909939641979065]}}, {"type": "Feature", "properties": {"norad_id": 27445, "name": "GALAXY 3C (G-3C)", "group": "intelsat", "lat": 1.9160571185296855, "lon": -135.77528925824427, "alt_km": 35782.93601470116, "timestamp": "2025-12-11T15:53:39.209744+00:00", "meta": {"OBJECT_NAME": "GALAXY 3C (G-3C)", "OBJECT_ID": "2002-030A", "EPOCH": "2025-12-11T05:00:38.584224", "MEAN_MOTION": 1.0027162, "ECCENTRICITY": 0.0001123, "INCLINATION": 3.2606, "RA_OF_ASC_NODE": 80.5234, "ARG_OF_PERICENTER": 92.5456, "MEAN_ANOMALY": 247.402, "EPHEMERIS_TYPE": 0, "CLASSIFICATION_TYPE": "U", "NORAD_CAT_ID": 27445, "ELEMENT_SET_NO": 999, "REV_AT_EPOCH": 4460, "BSTAR": 0, "MEAN_MOTION_DOT": -1.47e-06, "MEAN_MOTION_DDOT": 0}, "tle": {"line1": "1 27445U 02030A   25345.20877991 -.00000147  00000+0  00000+0 0  9990", "line2": "2 27445   3.2606  80.5234 0001123  92.5456 247.4020  1.00271620 44603"}}, "geometry": {"type": "Point", "coordinates": [-135.77528925824427, 1.9160571185296855]}}, {"type": "Feature", "properties": {"norad_id": 27513, "name": "INTELSAT 906 (IS-906)", "group": "intelsat", "lat": -4.1856831889031385, "lon": 23.34807482315963, "alt_km": 35798.350388627194, "timestamp": "2025-12-11T15:53:39.209756+00:00", "meta": {"OBJECT_NAME": "INTELSAT 906 (IS-906)", "OBJECT_ID": "2002-041A", "EPOCH": "2025-12-11T05:15:24.712128", "MEAN_MOTION": 1.00271294, "ECCENTRICITY": 0.0006154, "INCLINATION": 5.325, "RA_OF_ASC_NODE": 75.2494, "ARG_OF_PERICENTER": 191.5567, "MEAN_ANOMALY": 316.3613, "EPHEMERIS_TYPE": 0, "CLASSIFICATION_TYPE": "U", "NORAD_CAT_ID": 27513, "ELEMENT_SET_NO": 999, "REV_AT_EPOCH": 8514, "BSTAR": 0, "MEAN_MOTION_DOT": 1.9e-07, "MEAN_MOTION_DDOT": 0}, "tle": {"line1": "1 27513U 02041A   25345.21903602  .00000019  00000+0  00000+0 0  9995", "line2": "2 27513   5.3250  75.2494 0006154 191.5567 316.3613  1.00271294 85143"}}, "geometry": {"type": "Point", "coordinates": [23.34807482315963, -4.1856831889031385]}}, {"type": "Feature", "properties": {"norad_id": 27954, "name": "GALAXY 13 (HORIZONS-1)", "group": "intelsat", "lat": 0.921580939575663, "lon": 169.00253855351704, "alt_km": 35785.09944050032, "timestamp": "2025-12-11T15:53:39.209768+00:00", "meta": {"OBJECT_NAME": "GALAXY 13 (HORIZONS-1)", "OBJECT_ID": "2003-044A", "EPOCH": "2025-12-11T04:14:15.567648", "MEAN_MOTION": 1.00270843, "ECCENTRICITY": 0.00020347, "INCLINATION": 0.9315, "RA_OF_ASC_NODE": 86.49, "ARG_OF_PERICENTER": 165.3304, "MEAN_ANOMALY": 101.8836, "EPHEMERIS_TYPE": 0, "CLASSIFICATION_TYPE": "U", "NORAD_CAT_ID": 27954, "ELEMENT_SET_NO": 999, "REV_AT_EPOCH": 4468, "BSTAR": 0, "MEAN_MOTION_DOT": 1.39e-06, "MEAN_MOTION_DDOT": 0}, "tle": {"line1": "1 27954U 03044A   25345.17656907  .00000139  00000+0  00000+0 0  9999", "line2": "2 27954   0.9315  86.4900 0002034 165.3304 101.8836  1.00270843 44689"}}, "geometry": {"type": "Point", "coordinates": [169.00253855351704, 0.921580939575663]}}, {"type": "Feature", "properties": {"norad_id": 28358, "name": "INTELSAT 10-02", "group": "intelsat", "lat": -0.02435749669042682, "lon": -41.94161919195658, "alt_km": 35775.12126089713, "timestamp": "2025-12-11T15:53:39.209780+00:00", "meta": {"OBJECT_NAME": "INTELSAT 10-02", "OBJECT_ID": "2004-022A", "EPOCH": "2025-12-11T03:14:06.328608", "MEAN_MOTION": 1.00278861, "ECCENTRICITY": 0.0002196, "INCLINATION": 0.0236, "RA_OF_ASC_NODE": 64.8116, "ARG_OF_PERICENTER": 267.1758, "MEAN_ANOMALY": 155.6608, "EPHEMERIS_TYPE": 0, "CLASSIFICATION_TYPE": "U", "NORAD_CAT_ID": 28358, "ELEMENT_SET_NO": 999, "REV_AT_EPOCH": 7867, "BSTAR": 0, "MEAN_MOTION_DOT": -4e-08, "MEAN_MOTION_DDOT": 0}, "tle": {"line1": "1 28358U 04022A   25345.13479547 -.00000004  00000+0  00000+0 0  9996", "line2": "2 28358   0.0236  64.8116 0002196 267.1758 155.6608  1.00278861 78671"}}, "geometry": {"type": "Point", "coordinates": [-41.94161919195658, -0.02435749669042682]}}, {"type": "Feature", "properties": {"norad_id": 28626, "name": "XM-3 (RHYTHM)", "group": "intelsat", "lat": 0.010284315185011548, "lon": 78.48691244149835, "alt_km": 36159.83413527998, "timestamp": "2025-12-11T15:53:39.209792+00:00", "meta": {"OBJECT_NAME": "XM-3 (RHYTHM)", "OBJECT_ID": "2005-008A", "EPOCH": "2025-12-11T05:31:45.645888", "MEAN_MOTION": 0.98953084, "ECCENTRICITY": 0.00014728, "INCLINATION": 0.171, "RA_OF_ASC_NODE": 81.3808, "ARG_OF_PERICENTER": 267.9765, "MEAN_ANOMALY": 295.2688, "EPHEMERIS_TYPE": 0, "CLASSIFICATION_TYPE": "U", "NORAD_CAT_ID": 28626, "ELEMENT_SET_NO": 999, "REV_AT_EPOCH": 4073, "BSTAR": 0, "MEAN_MOTION_DOT": -1.97e-06, "MEAN_MOTION_DDOT": 0}, "tle": {"line1": "1 28626U 05008A   25345.23038942 -.00000197  00000+0  00000+0 0  9993", "line2": "2 28626   0.1710  81.3808 0001472 267.9765 295.2688  0.98953084 40739"}}, "geometry": {"type": "Point", "coordinates": [78.48691244149835, 0.010284315185011548]}}]}